1 25984U 99065E   17164.47157096 +.00000024 +00000-0 +60124-4 0  9998,2 25984 045.0366 177.9136 0001667 199.9951 160.0830 14.32491712914692
1 25984U 99065E   17165.44794777 +.00000031 +00000-0 +62710-4 0  9990,2 25984 045.0366 173.3285 0001716 204.2628 155.8138 14.32492182915273
1 25984U 99065E   17166.14536681  .00000299  00000-0  10919-3 0  9995,2 25984  45.0430 170.0425 0001733 215.3123 144.8118 14.32493693915372
1 25984U 99065E   17166.42432430 +.00000033 +00000-0 +63518-4 0  9993,2 25984 045.0366 168.7433 0001780 208.2315 151.8435 14.32492566914972
1 25984U 99065E   17167.47044144 +.00000063 +00000-0 +74469-4 0  9990,2 25984 045.0367 163.8306 0001836 212.1553 147.9181 14.32493177915129
1 25984U 99065E   17168.16785269 +.00000076 +00000-0 +79165-4 0  9999,2 25984 045.0367 160.5554 0001893 214.7291 145.3433 14.32493526915229
1 25984U 99065E   17168.37707610 +.00000081 +00000-0 +81260-4 0  9991,2 25984 045.0367 159.5729 0001884 215.5019 144.5703 14.32493631915697
1 25984U 99065E   17169.42319243 +.00000089 +00000-0 +83839-4 0  9991,2 25984 045.0369 154.6602 0001936 218.7518 141.3190 14.32494209915846
1 25984U 99065E   17170.19034421 +.00000075 +00000-0 +79023-4 0  9994,2 25984 045.0370 151.0577 0001992 221.6503 138.4192 14.32494552915513
1 25984U 99065E   17170.39956740 +.00000077 +00000-0 +79549-4 0  9998,2 25984 045.0370 150.0752 0001977 222.0188 138.0507 14.32494683915548
1 25984U 99065E   17170.95749589 +.00000061 +00000-0 +73888-4 0  9994,2 25984 045.0371 147.4550 0001996 223.9729 136.0959 14.32494897915622
1 25984U 99065E   17171.37594196 +.00000056 +00000-0 +71889-4 0  9996,2 25984 045.0372 145.4900 0002024 225.2314 134.8368 14.32495181915681
1 25984U 99065E   17171.93387023 +.00000042 +00000-0 +66653-4 0  9995,2 25984 045.0373 142.8699 0002050 227.2505 132.8169 14.32495418915760
1 25984U 99065E   17172.35231635 +.00000033 +00000-0 +63359-4 0  9999,2 25984 045.0373 140.9050 0002062 228.4340 131.6330 14.32495636916268
1 25984U 99065E   17172.91024449 +.00000020 +00000-0 +58796-4 0  9999,2 25984 045.0374 138.2848 0002076 230.3354 129.7309 14.32495869915908
1 25984U 99065E   17173.39843152 +.00000020 +00000-0 +58815-4 0  9994,2 25984 045.0375 135.9923 0002089 231.6486 128.4173 14.32496141915977
1 25984U 99065E   17173.95635953 +.00000014 +00000-0 +56640-4 0  9991,2 25984 045.0376 133.3722 0002109 233.4902 126.5750 14.32496355916050
1 25984U 99065E   17174.93273345 +.00000015 +00000-0 +56949-4 0  9996,2 25984 045.0377 128.7871 0002123 236.4003 123.6641 14.32496741916196
1 25984U 99065E   17175.28143840 +.00000018 +00000-0 +58208-4 0  9994,2 25984 045.0377 127.1497 0002133 237.3774 122.6867 14.32496870916247
1 25984U 99065E   17176.18807110 +.00000027 +00000-0 +61502-4 0  9992,2 25984 045.0378 122.8921 0002152 239.9660 120.0973 14.32497163916375
1 25984U 99065E   17176.25781208 +.00000029 +00000-0 +61897-4 0  9998,2 25984 045.0378 122.5646 0002152 240.1736 119.8896 14.32497187916820
1 25984U 99065E   17177.23418551 +.00000039 +00000-0 +65801-4 0  9995,2 25984 045.0379 117.9795 0002170 242.9976 117.0649 14.32497511916524
1 25984U 99065E   17177.30392646 +.00000040 +00000-0 +65997-4 0  9997,2 25984 045.0379 117.6520 0002166 243.1663 116.8962 14.32497538916971
1 25984U 99065E   17177.86185404 +.00000038 +00000-0 +65363-4 0  9994,2 25984 045.0380 115.0318 0002175 244.7259 115.3362 14.32497686916611
1 25984U 99065E   17178.90796827 +.00000020 +00000-0 +58916-4 0  9994,2 25984 045.0381 110.1194 0002171 247.4063 112.6554 14.32497900916767
1 25984U 99065E   17179.25667297 +.00000014 +00000-0 +56701-4 0  9994,2 25984 045.0382 108.4819 0002176 248.5822 111.4793 14.32497980916818
1 25984U 99065E   17179.81460036 +.00000007 +00000-0 +54138-4 0  9992,2 25984 045.0383 105.8619 0002182 250.1028 109.9584 14.32498138916896
1 25984U 99065E   17180.23304598 -.00000005 +00000-0 +49483-4 0  9996,2 25984 045.0384 103.8970 0002176 251.2100 108.8511 14.32498215916952
1 25984U 99065E   17180.86071437 -.00000031 +00000-0 +40170-4 0  9991,2 25984 045.0385 100.9495 0002183 252.7723 107.2885 14.32498252917047
1 25984U 99065E   17181.90682832 -.00000058 +00000-0 +30143-4 0  9992,2 25984 045.0387 096.0370 0002198 255.6317 104.4285 14.32498359917190
1 25984U 99065E   17182.18579223 -.00000072 +00000-0 +25064-4 0  9994,2 25984 045.0387 094.7272 0002189 256.7180 103.3422 14.32498304917232
1 25984U 99065E   17182.88320151 -.00000090 +00000-0 +18521-4 0  9995,2 25984 045.0388 091.4522 0002194 258.6219 101.4381 14.32498326917333
1 25984U 99065E   17183.16216533 -.00000096 +00000-0 +16181-4 0  9991,2 25984 045.0388 090.1424 0002189 259.3996 100.6604 14.32498292917818
1 25984U 99065E   17184.20827927 -.00000093 +00000-0 +17345-4 0  9992,2 25984 045.0389 085.2299 0002189 261.9227 098.1371 14.32498357917522
1 25984U 99065E   17185.18465216 -.00000085 +00000-0 +20487-4 0  9991,2 25984 045.0389 080.6449 0002181 264.0367 096.0231 14.32498439917667
1 25984U 99065E   17186.16102486 -.00000068 +00000-0 +26719-4 0  9992,2 25984 045.0389 076.0599 0002162 266.1715 093.8884 14.32498627917805
1 25984U 99065E   17186.78869294 -.00000057 +00000-0 +30507-4 0  9995,2 25984 045.0389 073.1124 0002158 267.8718 092.1882 14.32498777918338
1 25984U 99065E   17187.06765648 -.00000041 +00000-0 +36412-4 0  9999,2 25984 045.0389 071.8026 0002150 269.0414 091.0186 14.32498938917932
1 25984U 99065E   17187.76506515 -.00000035 +00000-0 +38478-4 0  9999,2 25984 045.0390 068.5273 0002127 269.8707 090.1896 14.32499182918030
1 25984U 99065E   17188.53221426 -.00000011 +00000-0 +47397-4 0  9994,2 25984 045.0390 064.9248 0002163 272.5993 087.4606 14.32499633918141
1 25984U 99065E   17188.74143664 +.00000003 +00000-0 +52621-4 0  9990,2 25984 045.0390 063.9423 0002149 273.0793 086.9808 14.32499860918176
1 25984U 99065E   17189.57832668 +.00000010 +00000-0 +55217-4 0  9993,2 25984 045.0391 060.0123 0002159 275.7955 084.2646 14.32500210918298
1 25984U 99065E   17189.85728998 +.00000013 +00000-0 +56128-4 0  9999,2 25984 045.0391 058.7024 0002133 276.2480 083.8123 14.32500372918332
1 25984U 99065E   17190.62443887 +.00000023 +00000-0 +59915-4 0  9995,2 25984 045.0391 055.0997 0002096 277.4500 082.6109 14.32500761918440
1 25984U 99065E   17190.90340201 +.00000027 +00000-0 +61447-4 0  9999,2 25984 045.0391 053.7898 0002098 278.3929 081.6680 14.32500925918481
1 25984U 99065E   17191.53106914 +.00000038 +00000-0 +65282-4 0  9993,2 25984 045.0391 050.8424 0002081 279.6971 080.3640 14.32501221918579
1 25984U 99065E   17192.01925462 +.00000041 +00000-0 +66540-4 0  9996,2 25984 045.0391 048.5499 0002058 280.5275 079.5339 14.32501438919089
1 25984U 99065E   17192.57718080 +.00000049 +00000-0 +69340-4 0  9992,2 25984 045.0391 045.9299 0002046 281.8971 078.1646 14.32501668918723
1 25984U 99065E   17192.99562533 +.00000048 +00000-0 +69019-4 0  9990,2 25984 045.0391 043.9649 0002026 282.3501 077.7119 14.32501832918782
1 25984U 99065E   17193.62329215 +.00000041 +00000-0 +66395-4 0  9996,2 25984 045.0391 041.0173 0002020 284.1802 075.8820 14.32501984918877
1 25984U 99065E   17193.90225512 +.00000045 +00000-0 +68089-4 0  9998,2 25984 045.0391 039.7074 0002005 284.7396 075.3228 14.32502120918913
1 25984U 99065E   17194.59966246 +.00000044 +00000-0 +67387-4 0  9999,2 25984 045.0391 036.4325 0001972 285.8150 074.2479 14.32502382919016
1 25984U 99065E   17194.87862541 +.00000042 +00000-0 +66707-4 0  9996,2 25984 045.0391 035.1225 0001960 286.4362 073.6269 14.32502465919494
1 25984U 99065E   17195.57603259 +.00000031 +00000-0 +62960-4 0  9998,2 25984 045.0390 031.8474 0001934 287.5687 072.4949 14.32502672919150
1 25984U 99065E   17195.92473619 +.00000031 +00000-0 +62766-4 0  9996,2 25984 045.0390 030.2099 0001917 288.2402 071.8236 14.32502802919203
1 25984U 99065E   17196.55240257 +.00000033 +00000-0 +63464-4 0  9994,2 25984 045.0390 027.2623 0001901 289.5537 070.5104 14.32503036919297
1 25984U 99065E   17196.90110618 +.00000018 +00000-0 +58005-4 0  9998,2 25984 045.0390 025.6248 0001881 290.2265 069.8380 14.32503069919345
1 25984U 99065E   17197.59851316 +.00000006 +00000-0 +53625-4 0  9991,2 25984 045.0391 022.3497 0001859 291.4021 068.6627 14.32503261919440
1 25984U 99065E   17197.87747605 +.00000005 +00000-0 +53251-4 0  9991,2 25984 045.0391 021.0397 0001842 292.3616 067.7035 14.32503331919482
1 25984U 99065E   17198.57488290 -.00000007 +00000-0 +49053-4 0  9999,2 25984 045.0391 017.7646 0001823 293.6546 066.4109 14.32503507919580
1 25984U 99065E   17198.92358636 -.00000004 +00000-0 +49981-4 0  9995,2 25984 045.0392 016.1272 0001805 294.5276 065.5383 14.32503628919633
1 25984U 99065E   17199.89995573 +.00000000 +00000-0 +51613-4 0  9999,2 25984 045.0393 011.5421 0001770 296.1118 063.9547 14.32503940919779
1 25984U 99065E   17200.52762172 -.00000004 +00000-0 +50101-4 0  9995,2 25984 045.0393 008.5945 0001753 297.3095 062.7573 14.32504067919861
1 25984U 99065E   17200.87632505 +.00000001 +00000-0 +51804-4 0  9996,2 25984 045.0393 006.9571 0001736 298.1134 061.9537 14.32504161919914
1 25984U 99065E   17201.50399089 +.00000002 +00000-0 +52196-4 0  9990,2 25984 045.0393 004.0095 0001717 299.1835 060.8840 14.32504303920007
1 25984U 99065E   17201.92243488 -.00000003 +00000-0 +50546-4 0  9996,2 25984 045.0393 002.0446 0001697 300.1922 059.8756 14.32504343920066
1 25984U 99065E   17202.55010061 -.00000001 +00000-0 +51052-4 0  9996,2 25984 045.0393 359.0970 0001675 301.2868 058.7815 14.32504495920152
1 25984U 99065E   17202.89880389 -.00000006 +00000-0 +49112-4 0  9990,2 25984 045.0394 357.4596 0001658 302.2171 057.8515 14.32504517920206
1 25984U 99065E   17203.52646962 -.00000017 +00000-0 +45100-4 0  9993,2 25984 045.0393 354.5120 0001632 303.8006 056.2685 14.32504597920290
1 25984U 99065E   17203.87517280 -.00000027 +00000-0 +41604-4 0  9997,2 25984 045.0393 352.8746 0001613 304.1678 055.9016 14.32504614920343
1 25984U 99065E   17204.57257908 -.00000049 +00000-0 +33420-4 0  9994,2 25984 045.0393 349.5995 0001584 305.4480 054.6218 14.32504659920444
